start=new Date('2022-05-23T00:00:00.000Z').valueOf();
sats=[{"MEAN_ELEMENT_THEORY":"SGP4","OBJECT_TYPE":"PAYLOAD","PERIOD":"95.592","ECCENTRICITY":"0.00017680","MEAN_MOTION_DDOT":"0.0000000000000","LAUNCH_DATE":"2020-06-04","EPOCH":"2022-05-22T19:22:59.105856","INCLINATION":"53.0542","ARG_OF_PERICENTER":"48.0208","REF_FRAME":"TEME","PERIAPSIS":"545.985","CLASSIFICATION_TYPE":"U","EPHEMERIS_TYPE":"0","RA_OF_ASC_NODE":"172.5594","TLE_LINE2":"2 45662  53.0542 172.5594 0001768  48.0208 312.0932 15.06401355109696","COUNTRY_CODE":"US","RCS_SIZE":"LARGE","FILE":"3459268","REV_AT_EPOCH":"10969","MEAN_MOTION_DOT":"0.00000507","TIME_SYSTEM":"UTC","NORAD_CAT_ID":"45662","MEAN_MOTION":"15.06401355","DECAY_DATE":null,"APOAPSIS":"548.434","BSTAR":"0.00005293500000","MEAN_ANOMALY":"312.0932","OBJECT_NAME":"STARLINK-1445","SEMIMAJOR_AXIS":"6925.344","ELEMENT_SET_NO":"999","CENTER_NAME":"EARTH","GP_ID":"204278015","OBJECT_ID":"2020-035F","TLE_LINE1":"1 45662U 20035F   22142.80762854  .00000507  00000-0  52935-4 0  9994","SITE":"AFETR"},{"ARG_OF_PERICENTER":"50.9679","EPOCH":"2022-05-22T19:28:17.552064","INCLINATION":"53.0538","PERIOD":"95.592","MEAN_MOTION_DDOT":"0.0000000000000","ECCENTRICITY":"0.00016980","OBJECT_TYPE":"PAYLOAD","LAUNCH_DATE":"2020-06-04","MEAN_ELEMENT_THEORY":"SGP4","COUNTRY_CODE":"US","TLE_LINE2":"2 45663  53.0538 172.5498 0001698  50.9679 309.1461 15.06403769109696","MEAN_MOTION_DOT":"0.00002104","FILE":"3459268","REV_AT_EPOCH":"10969","RCS_SIZE":"LARGE","EPHEMERIS_TYPE":"0","RA_OF_ASC_NODE":"172.5498","CLASSIFICATION_TYPE":"U","PERIAPSIS":"546.026","REF_FRAME":"TEME","ELEMENT_SET_NO":"999","SEMIMAJOR_AXIS":"6925.337","OBJECT_NAME":"STARLINK-1446","MEAN_ANOMALY":"309.1461","APOAPSIS":"548.378","DECAY_DATE":null,"BSTAR":"0.00016011000000","MEAN_MOTION":"15.06403769","TIME_SYSTEM":"UTC","NORAD_CAT_ID":"45663","TLE_LINE1":"1 45663U 20035G   22142.81131426  .00002104  00000-0  16011-3 0  9990","SITE":"AFETR","OBJECT_ID":"2020-035G","CENTER_NAME":"EARTH","GP_ID":"204278265"},{"SEMIMAJOR_AXIS":"6925.351","ELEMENT_SET_NO":"999","DECAY_DATE":null,"BSTAR":"0.00008611000000","APOAPSIS":"548.500","OBJECT_NAME":"STARLINK-1448","MEAN_ANOMALY":"307.6523","MEAN_MOTION":"15.06399088","TIME_SYSTEM":"UTC","NORAD_CAT_ID":"45665","TLE_LINE1":"1 45665U 20035J   22142.77814087  .00001001  00000-0  86110-4 0  9991","SITE":"AFETR","OBJECT_ID":"2020-035J","CENTER_NAME":"EARTH","GP_ID":"204279014","ARG_OF_PERICENTER":"52.4634","EPOCH":"2022-05-22T18:40:31.371168","INCLINATION":"53.0555","OBJECT_TYPE":"PAYLOAD","ECCENTRICITY":"0.00018530","PERIOD":"95.592","MEAN_MOTION_DDOT":"0.0000000000000","LAUNCH_DATE":"2020-06-04","MEAN_ELEMENT_THEORY":"SGP4","TLE_LINE2":"2 45665  53.0555 172.6925 0001853  52.4634 307.6523 15.06399088109683","COUNTRY_CODE":"US","RCS_SIZE":"LARGE","MEAN_MOTION_DOT":"0.00001001","FILE":"3459268","REV_AT_EPOCH":"10968","EPHEMERIS_TYPE":"0","RA_OF_ASC_NODE":"172.6925","CLASSIFICATION_TYPE":"U","REF_FRAME":"TEME","PERIAPSIS":"545.933"},{"TIME_SYSTEM":"UTC","NORAD_CAT_ID":"45666","MEAN_MOTION":"15.06393405","DECAY_DATE":null,"BSTAR":"0.00007303700000","APOAPSIS":"548.439","MEAN_ANOMALY":"314.3741","OBJECT_NAME":"STARLINK-1449","SEMIMAJOR_AXIS":"6925.369","ELEMENT_SET_NO":"999","CENTER_NAME":"EARTH","GP_ID":"204279260","OBJECT_ID":"2020-035K","TLE_LINE1":"1 45666U 20035K   22142.78182157  .00000806  00000-0  73037-4 0  9995","SITE":"AFETR","MEAN_ELEMENT_THEORY":"SGP4","OBJECT_TYPE":"PAYLOAD","ECCENTRICITY":"0.00017400","PERIOD":"95.593","MEAN_MOTION_DDOT":"0.0000000000000","LAUNCH_DATE":"2020-06-04","EPOCH":"2022-05-22T18:45:49.383648","INCLINATION":"53.0544","ARG_OF_PERICENTER":"45.7390","REF_FRAME":"TEME","PERIAPSIS":"546.029","CLASSIFICATION_TYPE":"U","EPHEMERIS_TYPE":"0","RA_OF_ASC_NODE":"172.6634","COUNTRY_CODE":"US","TLE_LINE2":"2 45666  53.0544 172.6634 0001740  45.7390 314.3741 15.06393405109682","RCS_SIZE":"LARGE","MEAN_MOTION_DOT":"0.00000806","FILE":"3459268","REV_AT_EPOCH":"10968"},{"INCLINATION":"53.0532","EPOCH":"2022-05-22T18:49:19.276032","ARG_OF_PERICENTER":"65.8519","MEAN_ELEMENT_THEORY":"SGP4","OBJECT_TYPE":"PAYLOAD","MEAN_MOTION_DDOT":"0.0000000000000","PERIOD":"95.644","ECCENTRICITY":"0.00013030","LAUNCH_DATE":"2020-06-04","EPHEMERIS_TYPE":"0","RA_OF_ASC_NODE":"172.6939","COUNTRY_CODE":"US","TLE_LINE2":"2 45667  53.0532 172.6939 0001303  65.8519 294.2606 15.05589693109680","RCS_SIZE":"LARGE","MEAN_MOTION_DOT":"-0.00001213","FILE":"3459268","REV_AT_EPOCH":"10968","PERIAPSIS":"548.795","REF_FRAME":"TEME","CLASSIFICATION_TYPE":"U","BSTAR":"-0.00006409900000","DECAY_DATE":null,"APOAPSIS":"550.601","OBJECT_NAME":"STARLINK-1450","MEAN_ANOMALY":"294.2606","SEMIMAJOR_AXIS":"6927.833","ELEMENT_SET_NO":"999","TIME_SYSTEM":"UTC","NORAD_CAT_ID":"45667","MEAN_MOTION":"15.05589693","TLE_LINE1":"1 45667U 20035L   22142.78425088 -.00001213  00000-0 -64099-4 0  9992","SITE":"AFETR","CENTER_NAME":"EARTH","GP_ID":"204278515","OBJECT_ID":"2020-035L"},{"EPHEMERIS_TYPE":"0","RA_OF_ASC_NODE":"172.5358","TLE_LINE2":"2 45668  53.0547 172.5358 0002110  48.3773 311.7396 15.06404448109705","COUNTRY_CODE":"US","RCS_SIZE":"LARGE","FILE":"3459268","MEAN_MOTION_DOT":"0.00002489","REV_AT_EPOCH":"10970","PERIAPSIS":"545.739","REF_FRAME":"TEME","CLASSIFICATION_TYPE":"U","INCLINATION":"53.0547","EPOCH":"2022-05-22T19:37:33.002112","ARG_OF_PERICENTER":"48.3773","MEAN_ELEMENT_THEORY":"SGP4","OBJECT_TYPE":"PAYLOAD","MEAN_MOTION_DDOT":"0.0000000000000","PERIOD":"95.592","ECCENTRICITY":"0.00021100","LAUNCH_DATE":"2020-06-04","TLE_LINE1":"1 45668U 20035M   22142.81774308  .00002489  00000-0  18595-3 0  9992","SITE":"AFETR","CENTER_NAME":"EARTH","GP_ID":"204278765","OBJECT_ID":"2020-035M","DECAY_DATE":null,"BSTAR":"0.00018595000000","APOAPSIS":"548.661","MEAN_ANOMALY":"311.7396","OBJECT_NAME":"STARLINK-1451","SEMIMAJOR_AXIS":"6925.335","ELEMENT_SET_NO":"999","TIME_SYSTEM":"UTC","NORAD_CAT_ID":"45668","MEAN_MOTION":"15.06404448"},{"INCLINATION":"53.0530","EPOCH":"2022-05-22T11:14:39.942240","ARG_OF_PERICENTER":"49.6392","MEAN_ELEMENT_THEORY":"SGP4","ECCENTRICITY":"0.00018560","PERIOD":"95.592","MEAN_MOTION_DDOT":"0.0000000000000","OBJECT_TYPE":"PAYLOAD","LAUNCH_DATE":"2020-06-04","EPHEMERIS_TYPE":"0","RA_OF_ASC_NODE":"174.0912","TLE_LINE2":"2 45669  53.0530 174.0912 0001856  49.6392 310.4759 15.06405765109643","COUNTRY_CODE":"US","REV_AT_EPOCH":"10964","FILE":"3458680","MEAN_MOTION_DOT":"0.00002660","RCS_SIZE":"LARGE","PERIAPSIS":"545.911","REF_FRAME":"TEME","CLASSIFICATION_TYPE":"U","MEAN_ANOMALY":"310.4759","OBJECT_NAME":"STARLINK-1452","DECAY_DATE":null,"BSTAR":"0.00019738000000","APOAPSIS":"548.481","ELEMENT_SET_NO":"999","SEMIMAJOR_AXIS":"6925.331","TIME_SYSTEM":"UTC","NORAD_CAT_ID":"45669","MEAN_MOTION":"15.06405765","TLE_LINE1":"1 45669U 20035N   22142.46851785  .00002660  00000-0  19738-3 0  9990","SITE":"AFETR","CENTER_NAME":"EARTH","GP_ID":"204240127","OBJECT_ID":"2020-035N"},{"GP_ID":"204279760","CENTER_NAME":"EARTH","OBJECT_ID":"2020-035P","SITE":"AFETR","TLE_LINE1":"1 45670U 20035P   22142.72561757  .00001519  00000-0  12088-3 0  9991","NORAD_CAT_ID":"45670","TIME_SYSTEM":"UTC","MEAN_MOTION":"15.06390234","DECAY_DATE":null,"BSTAR":"0.00012088000000","APOAPSIS":"548.575","OBJECT_NAME":"STARLINK-1453","MEAN_ANOMALY":"318.0367","SEMIMAJOR_AXIS":"6925.378","ELEMENT_SET_NO":"999","PERIAPSIS":"545.912","REF_FRAME":"TEME","CLASSIFICATION_TYPE":"U","RA_OF_ASC_NODE":"142.9524","EPHEMERIS_TYPE":"0","RCS_SIZE":"LARGE","REV_AT_EPOCH":"10999","FILE":"3459268","MEAN_MOTION_DOT":"0.00001519","TLE_LINE2":"2 45670  53.0551 142.9524 0001922  42.0769 318.0367 15.06390234109991","COUNTRY_CODE":"US","MEAN_ELEMENT_THEORY":"SGP4","LAUNCH_DATE":"2020-06-04","OBJECT_TYPE":"PAYLOAD","PERIOD":"95.593","MEAN_MOTION_DDOT":"0.0000000000000","ECCENTRICITY":"0.00019220","INCLINATION":"53.0551","EPOCH":"2022-05-22T17:24:53.358048","ARG_OF_PERICENTER":"42.0769"},{"OBJECT_ID":"2020-035Q","CENTER_NAME":"EARTH","GP_ID":"204278016","TLE_LINE1":"1 45671U 20035Q   22142.80394545 -.00000008  00000-0  18394-4 0  9990","SITE":"AFETR","MEAN_MOTION":"15.06394442","TIME_SYSTEM":"UTC","NORAD_CAT_ID":"45671","SEMIMAJOR_AXIS":"6925.366","ELEMENT_SET_NO":"999","BSTAR":"0.00001839400000","DECAY_DATE":null,"APOAPSIS":"548.633","OBJECT_NAME":"STARLINK-1454","MEAN_ANOMALY":"310.7839","CLASSIFICATION_TYPE":"U","REF_FRAME":"TEME","PERIAPSIS":"545.828","TLE_LINE2":"2 45671  53.0535 172.5845 0002025  49.3326 310.7839 15.06394442109687","COUNTRY_CODE":"US","RCS_SIZE":"LARGE","MEAN_MOTION_DOT":"-0.00000008","FILE":"3459268","REV_AT_EPOCH":"10968","EPHEMERIS_TYPE":"0","RA_OF_ASC_NODE":"172.5845","OBJECT_TYPE":"PAYLOAD","MEAN_MOTION_DDOT":"0.0000000000000","PERIOD":"95.592","ECCENTRICITY":"0.00020250","LAUNCH_DATE":"2020-06-04","MEAN_ELEMENT_THEORY":"SGP4","ARG_OF_PERICENTER":"49.3326","INCLINATION":"53.0535","EPOCH":"2022-05-22T19:17:40.886880"},{"PERIAPSIS":"545.696","REF_FRAME":"TEME","CLASSIFICATION_TYPE":"U","RA_OF_ASC_NODE":"144.0402","EPHEMERIS_TYPE":"0","RCS_SIZE":"LARGE","FILE":"3458872","REV_AT_EPOCH":"10965","MEAN_MOTION_DOT":"-0.00000173","TLE_LINE2":"2 45672  53.0538 144.0402 0002144  48.0846 312.0325 15.06410624109652","COUNTRY_CODE":"US","MEAN_ELEMENT_THEORY":"SGP4","LAUNCH_DATE":"2020-06-04","OBJECT_TYPE":"PAYLOAD","PERIOD":"95.591","ECCENTRICITY":"0.00021440","MEAN_MOTION_DDOT":"0.0000000000000","INCLINATION":"53.0538","EPOCH":"2022-05-22T11:34:35.338080","ARG_OF_PERICENTER":"48.0846","GP_ID":"204249806","CENTER_NAME":"EARTH","OBJECT_ID":"2020-035R","SITE":"AFETR","TLE_LINE1":"1 45672U 20035R   22142.48235345 -.00000173  00000-0  73080-5 0  9994","NORAD_CAT_ID":"45672","TIME_SYSTEM":"UTC","MEAN_MOTION":"15.06410624","DECAY_DATE":null,"BSTAR":"0.00000730800000","APOAPSIS":"548.666","MEAN_ANOMALY":"312.0325","OBJECT_NAME":"STARLINK-1455","SEMIMAJOR_AXIS":"6925.316","ELEMENT_SET_NO":"999"}];
